{
  "type": "FeatureCollection",
  "features": [
    {
      "type": "Feature",
      "properties": {
        "norad_id": 60182,
        "name": "ALOS-4 (DAICHI-4)",
        "group": "resource",
        "lat": 74.0565547295803,
        "lon": 59.51694243033916,
        "alt_km": 623.0303786000732,
        "timestamp": "2025-12-19T22:41:52.037047+00:00",
        "meta_object_name": "ALOS-4 (DAICHI-4)",
        "meta_object_id": "2024-123A",
        "meta_epoch": "2025-12-19T19:06:31.175424",
        "meta_mean_motion": 14.79473832,
        "meta_eccentricity": 0.0001382,
        "meta_inclination": 97.9224,
        "meta_ra_of_asc_node": 88.5427,
        "meta_arg_of_pericenter": 101.3847,
        "meta_mean_anomaly": 258.7519,
        "meta_ephemeris_type": 0,
        "meta_classification_type": "U",
        "meta_norad_cat_id": 60182,
        "meta_element_set_no": 999,
        "meta_rev_at_epoch": 7935,
        "meta_bstar": 0.00019771,
        "meta_mean_motion_dot": 1.425e-05,
        "meta_mean_motion_ddot": 0,
        "tle_line1": "1 60182U 24123A   25353.79619416  .00001425  00000+0  19771-3 0  9999",
        "tle_line2": "2 60182  97.9224  88.5427 0001382 101.3847 258.7519 14.79473832 79353"
      },
      "geometry": {
        "type": "Point",
        "coordinates": [
          59.51694243033916,
          74.0565547295803
        ]
      }
    },
    {
      "type": "Feature",
      "properties": {
        "norad_id": 60452,
        "name": "LEGION 3",
        "group": "resource",
        "lat": 23.34940526172216,
        "lon": -62.90941922138629,
        "alt_km": 524.828783134586,
        "timestamp": "2025-12-19T22:41:52.037057+00:00",
        "meta_object_name": "LEGION 3",
        "meta_object_id": "2024-146A",
        "meta_epoch": "2025-12-19T05:08:58.669152",
        "meta_mean_motion": 15.15826747,
        "meta_eccentricity": 0.0015578,
        "meta_inclination": 45.0023,
        "meta_ra_of_asc_node": 275.4208,
        "meta_arg_of_pericenter": 233.6094,
        "meta_mean_anomaly": 126.3348,
        "meta_ephemeris_type": 0,
        "meta_classification_type": "U",
        "meta_norad_cat_id": 60452,
        "meta_element_set_no": 999,
        "meta_rev_at_epoch": 7471,
        "meta_bstar": 0.00018927,
        "meta_mean_motion_dot": 3.424e-05,
        "meta_mean_motion_ddot": 0,
        "tle_line1": "1 60452U 24146A   25353.21456793  .00003424  00000+0  18927-3 0  9991",
        "tle_line2": "2 60452  45.0023 275.4208 0015578 233.6094 126.3348 15.15826747 74716"
      },
      "geometry": {
        "type": "Point",
        "coordinates": [
          -62.90941922138629,
          23.34940526172216
        ]
      }
    },
    {
      "type": "Feature",
      "properties": {
        "norad_id": 60453,
        "name": "LEGION 4",
        "group": "resource",
        "lat": 22.296700715832415,
        "lon": 27.46403078077024,
        "alt_km": 510.5167568142506,
        "timestamp": "2025-12-19T22:41:52.037068+00:00",
        "meta_object_name": "LEGION 4",
        "meta_object_id": "2024-146B",
        "meta_epoch": "2025-12-19T17:48:38.964096",
        "meta_mean_motion": 15.15892363,
        "meta_eccentricity": 0.0008815,
        "meta_inclination": 45.0395,
        "meta_ra_of_asc_node": 4.3645,
        "meta_arg_of_pericenter": 348.481,
        "meta_mean_anomaly": 11.5866,
        "meta_ephemeris_type": 0,
        "meta_classification_type": "U",
        "meta_norad_cat_id": 60453,
        "meta_element_set_no": 999,
        "meta_rev_at_epoch": 7364,
        "meta_bstar": 0.00018302,
        "meta_mean_motion_dot": 3.302e-05,
        "meta_mean_motion_ddot": 0,
        "tle_line1": "1 60453U 24146B   25353.74211764  .00003302  00000+0  18302-3 0  9999",
        "tle_line2": "2 60453  45.0395   4.3645 0008815 348.4810  11.5866 15.15892363 73648"
      },
      "geometry": {
        "type": "Point",
        "coordinates": [
          27.46403078077024,
          22.296700715832415
        ]
      }
    },
    {
      "type": "Feature",
      "properties": {
        "norad_id": 60989,
        "name": "SENTINEL-2C",
        "group": "resource",
        "lat": 19.714384975675888,
        "lon": 63.22761332809122,
        "alt_km": 788.8099057677191,
        "timestamp": "2025-12-19T22:41:52.037078+00:00",
        "meta_object_name": "SENTINEL-2C",
        "meta_object_id": "2024-157A",
        "meta_epoch": "2025-12-19T04:08:36.032064",
        "meta_mean_motion": 14.30819997,
        "meta_eccentricity": 0.00012209,
        "meta_inclination": 98.5677,
        "meta_ra_of_asc_node": 65.5625,
        "meta_arg_of_pericenter": 96.2932,
        "meta_mean_anomaly": 263.839,
        "meta_ephemeris_type": 0,
        "meta_classification_type": "U",
        "meta_norad_cat_id": 60989,
        "meta_element_set_no": 999,
        "meta_rev_at_epoch": 6724,
        "meta_bstar": 5.9972626e-05,
        "meta_mean_motion_dot": 1.14e-06,
        "meta_mean_motion_ddot": 0,
        "tle_line1": "1 60989U 24157A   25353.17263926  .00000114  00000+0  59973-4 0  9997",
        "tle_line2": "2 60989  98.5677  65.5625 0001220  96.2932 263.8390 14.30819997 67242"
      },
      "geometry": {
        "type": "Point",
        "coordinates": [
          63.22761332809122,
          19.714384975675888
        ]
      }
    },
    {
      "type": "Feature",
      "properties": {
        "norad_id": 61735,
        "name": "IONOSFERA-M 1",
        "group": "resource",
        "lat": 74.01761011233909,
        "lon": -168.74805366933236,
        "alt_km": 808.8907858939547,
        "timestamp": "2025-12-19T22:41:52.037089+00:00",
        "meta_object_name": "IONOSFERA-M 1",
        "meta_object_id": "2024-199A",
        "meta_epoch": "2025-12-19T18:57:48.694752",
        "meta_mean_motion": 14.22715455,
        "meta_eccentricity": 6.21e-05,
        "meta_inclination": 98.7399,
        "meta_ra_of_asc_node": 223.5841,
        "meta_arg_of_pericenter": 12.7318,
        "meta_mean_anomaly": 347.3875,
        "meta_ephemeris_type": 0,
        "meta_classification_type": "U",
        "meta_norad_cat_id": 61735,
        "meta_element_set_no": 999,
        "meta_rev_at_epoch": 10219,
        "meta_bstar": 3.7465e-05,
        "meta_mean_motion_dot": 4e-07,
        "meta_mean_motion_ddot": 0,
        "tle_line1": "1 61735U 24199A   25353.79014693  .00000040  00000+0  37465-4 0  9996",
        "tle_line2": "2 61735  98.7399 223.5841 0000621  12.7318 347.3875 14.22715455102191"
      },
      "geometry": {
        "type": "Point",
        "coordinates": [
          -168.74805366933236,
          74.01761011233909
        ]
      }
    },
    {
      "type": "Feature",
      "properties": {
        "norad_id": 61736,
        "name": "IONOSFERA-M 2",
        "group": "resource",
        "lat": -76.24395615136727,
        "lon": 4.721078006596701,
        "alt_km": 824.6765776597149,
        "timestamp": "2025-12-19T22:41:52.037099+00:00",
        "meta_object_name": "IONOSFERA-M 2",
        "meta_object_id": "2024-199B",
        "meta_epoch": "2025-12-19T18:06:24.958656",
        "meta_mean_motion": 14.22717649,
        "meta_eccentricity": 0.0001791,
        "meta_inclination": 98.7398,
        "meta_ra_of_asc_node": 223.4611,
        "meta_arg_of_pericenter": 101.7231,
        "meta_mean_anomaly": 258.4147,
        "meta_ephemeris_type": 0,
        "meta_classification_type": "U",
        "meta_norad_cat_id": 61736,
        "meta_element_set_no": 999,
        "meta_rev_at_epoch": 10531,
        "meta_bstar": 3.5946e-05,
        "meta_mean_motion_dot": 3.6e-07,
        "meta_mean_motion_ddot": 0,
        "tle_line1": "1 61736U 24199B   25353.75445554  .00000036  00000+0  35946-4 0  9994",
        "tle_line2": "2 61736  98.7398 223.4611 0001791 101.7231 258.4147 14.22717649105315"
      },
      "geometry": {
        "type": "Point",
        "coordinates": [
          4.721078006596701,
          -76.24395615136727
        ]
      }
    },
    {
      "type": "Feature",
      "properties": {
        "norad_id": 63772,
        "name": "BIOMASS",
        "group": "resource",
        "lat": 7.519720268609047,
        "lon": -0.07651746530724478,
        "alt_km": 670.9675970565713,
        "timestamp": "2025-12-19T22:41:52.037109+00:00",
        "meta_object_name": "BIOMASS",
        "meta_object_id": "2025-090A",
        "meta_epoch": "2025-12-19T10:27:38.474208",
        "meta_mean_motion": 14.67534976,
        "meta_eccentricity": 0.000107,
        "meta_inclination": 98.07,
        "meta_ra_of_asc_node": 178.3481,
        "meta_arg_of_pericenter": 79.7157,
        "meta_mean_anomaly": 280.4168,
        "meta_ephemeris_type": 0,
        "meta_classification_type": "U",
        "meta_norad_cat_id": 63772,
        "meta_element_set_no": 999,
        "meta_rev_at_epoch": 3432,
        "meta_bstar": 0.00014315,
        "meta_mean_motion_dot": 7.64e-06,
        "meta_mean_motion_ddot": 0,
        "tle_line1": "1 63772U 25090A   25353.43586197  .00000764  00000+0  14315-3 0  9995",
        "tle_line2": "2 63772  98.0700 178.3481 0001070  79.7157 280.4168 14.67534976 34320"
      },
      "geometry": {
        "type": "Point",
        "coordinates": [
          -0.07651746530724478,
          7.519720268609047
        ]
      }
    }
  ]
}